# From MPEC 2022-S20
C/1995 O1 (Hale-Bopp),e,89.6360,281.9519,130.4203,179.8204,0.0004087,0.99492306,0.0000,03/30.4232/1997,2000,g -2.0,4.0
# From NK 1615
P/1996 R2 (Lagerkvist),e,2.5990,40.0376,333.5109,3.771594,0.1345602,0.31407623,340.7913,01/24.0/2026,2000,g 11.5,4.0
# From MPC 73460
C/1997 BA6 (Spacewatch),e,72.6921,317.7855,286.0753,2929,0.0000062,0.99881766,0.0000,11/16.0480/1999,2000,g 10.0,2.0
# From MPC 75703
P/1998 VS24 (LINEAR),e,5.0301,159.0327,244.9365,4.519522,0.1025806,0.24343241,299.2538,01/24.0/2026,2000,g 13.0,2.0
# From MPC 73461
C/1999 F1 (Catalina),e,91.8696,19.9576,255.3247,20390,0.0000003,0.99971493,0.0000,01/31.1421/2002,2000,g  9.5,2.0
# From MPC186628
C/1999 J2 (Skiff),h,04/09.4692/2000,86.4024,50.2679,126.9660,1.000775,7.070809,2000,2.0,4.0
# From NK 731
P/1999 RO28 (LONEOS),e,7.5672,137.8391,231.3618,3.425450,0.1554632,0.67220259,13.3218,01/24.0/2026,2000,g 20.0,2.0
# From MPC 43758
C/1999 S2 (McNaught-Watson),h,11/06.8035/1997,65.6318,74.4448,223.4729,1.002300,6.503297,2000,2.0,4.0
# From MPC 75704
P/1999 XN120 (Catalina),e,5.0298,285.2387,161.4688,4.190817,0.1148831,0.21302448,3.9212,01/24.0/2026,2000,g 13.5,2.0
# From NK 744
P/2000 R2 (LINEAR),e,11.6793,160.2683,176.5819,3.468215,0.1525967,0.53052874,8.0424,01/24.0/2026,2000,g 18.0,4.0
# From MPC 43019
P/2001 H5 (NEAT),e,8.3728,328.6843,224.5813,6.093213,0.0655291,0.59968846,246.5419,01/24.0/2026,2000,g 12.0,4.0
# From MPC 46619
C/2001 M10 (NEAT),e,27.9940,293.9621,5.6053,26.71997,0.0071359,0.79926824,64.2326,01/24.0/2026,2000,g  8.0,4.0
# From MPEC 2015-N31
C/2002 A1 (LINEAR),e,14.0790,81.0448,18.7215,16.04112,0.0153409,0.70976126,135.3121,01/24.0/2026,2000,g 12.5,2.0
# From MPC 89006
C/2002 A2 (LINEAR),e,14.0331,81.0115,19.1168,15.89612,0.0155513,0.70743346,137.0582,01/24.0/2026,2000,g 11.0,2.0
# From MPC 45962
C/2002 B1 (LINEAR),e,51.0296,58.2632,76.0883,9.874205,0.0317651,0.77053374,276.2547,01/24.0/2026,2000,g 11.5,4.0
# From MPC188408
C/2002 CE10 (LINEAR),e,145.3731,147.5628,126.2424,9.765630,0.0322964,0.78946801,266.2898,01/24.0/2026,2000,g 13.0,2.0
# From MPEC 2023-UR6
P/2002 EJ57 (LINEAR),e,4.9911,330.2193,167.2989,6.454485,0.0601052,0.59418050,166.6979,01/24.0/2026,2000,g 12.5,4.0
# From MPEC 2015-N31
C/2002 L9 (NEAT),h,04/02.4673/2004,68.2212,110.4979,231.5833,1.000459,7.073623,2000,8.5,2.0
# From MPC 75007
C/2002 VQ94 (LINEAR),e,70.6183,35.0503,99.8153,187.5363,0.0003838,0.96400256,2.7958,01/24.0/2026,2000,g  9.5,2.0
# From MPC186628
C/2003 A2 (Gleason),e,8.0712,154.4566,346.5532,8231,0.0000013,0.99861941,0.0000,11/08.6271/2003,2000,g  3.5,4.0
# From MPC 51182
C/2003 E1 (NEAT),e,33.4704,137.1209,103.9222,13.77276,0.0192829,0.76206656,155.0466,01/24.0/2026,2000,g 12.5,2.0
# From MPC 50354
P/2003 F2 (NEAT),e,11.5779,358.9629,193.1042,6.554717,0.0587318,0.53614024,133.1322,01/24.0/2026,2000,g 16.5,2.0
# From unp
P/2003 L1 (Scotti),e,9.0447,225.8270,355.0485,6.693950,0.0569089,0.25188128,115.1216,01/24.0/2026,2000,g  9.5,4.0
# From MPC105235
P/2003 T12 (SOHO),e,11.0204,174.5693,219.8051,2.584262,0.2372462,0.77003574,135.0732,01/24.0/2026,2000,g 17.0,4.0
# From MPC 57131
C/2004 B1 (LINEAR),h,02/07.8919/2006,113.9140,273.3334,328.1182,1.000953,1.601588,2000,10.5,2.0
# From MPC 51368
C/2004 C1 (Larsen),e,28.8625,151.9549,315.9683,11.62433,0.0248686,0.62580256,359.9917,03/19.0/2003,2000,g 13.5,2.0
# From MPEC 2022-YN2
P/2004 FY140 (LINEAR),e,2.1629,327.2625,254.3277,4.968417,0.0889973,0.19289956,324.8819,01/24.0/2026,2000,g 12.5,2.0
# From MPC 53304
P/2004 R3 (LINEAR-NEAT),e,12.8055,305.1241,37.0282,4.744080,0.0953841,0.25495421,151.8861,01/24.0/2026,2000,g 14.5,4.0
# From MPC 53465
C/2004 T3 (Siding Spring),e,71.7777,50.3524,259.8474,40126,0.0000001,0.99977802,0.0000,04/04.2967/2003,2000,g  2.5,4.0
# From MPC 75705
P/2004 V5 (LINEAR-Hill),e,19.3296,47.7346,87.1473,8.055408,0.0431095,0.44961330,335.9240,01/24.0/2026,2000,g  8.0,4.0
# From unp
P/2004 V5-A (LINEAR-Hill),e,19.3330,47.7616,87.1122,8.056246,0.0431027,0.44969771,335.9382,01/24.0/2026,2000,g  8.0,4.0
# From MPC 75705
P/2004 V5-B (LINEAR-Hill),e,19.3298,47.7351,87.1518,8.055608,0.0431079,0.44962728,335.8829,01/24.0/2026,2000,g  8.0,4.0
# From MPC 54164
P/2005 E1 (Tubbiolo),e,4.2607,335.4842,193.9705,7.073819,0.0523870,0.37758728,44.4499,01/24.0/2026,2000,g 10.0,4.0
# From MPC 74246
P/2005 L1 (McNaught),e,10.1963,123.8552,166.8832,3.838600,0.1310524,0.28310596,183.7158,01/24.0/2026,2000,g  9.5,4.0
# From MPC 87062
C/2005 L3 (McNaught),e,139.3139,288.7781,46.9647,3956,0.0000040,0.99859057,0.0000,01/14.2127/2008,2000,g  4.0,4.0
# From MPC 75706
P/2005 S2 (Skiff),e,3.1394,161.3261,230.0773,7.981102,0.0437129,0.19818578,311.9501,01/24.0/2026,2000,g  7.5,4.0
# From MPC 73461
P/2005 T3 (Read),e,6.2336,27.6187,7.1798,7.567203,0.0473479,0.17362591,350.0972,01/24.0/2026,2000,g  9.0,4.0
# From MPC 75707
P/2006 HR30 (Siding Spring),e,31.9664,309.7454,117.5290,7.793631,0.0452996,0.84352401,315.1768,01/24.0/2026,2000,g 11.0,4.0
# From MPEC 2022-L66
C/2006 S3 (LONEOS),h,04/16.4893/2012,166.0456,38.5335,140.1346,1.000657,5.117899,2000,2.0,4.0
# From MPC 84315
C/2007 D1 (LINEAR),e,41.5185,170.9830,339.8169,1309,0.0000208,0.99332141,0.0000,06/16.2058/2007,2000,g  3.5,4.0
# From MPEC 2024-GJ3
P/2007 K2 (Gibbs),e,7.5871,188.2986,347.0374,7.402886,0.0489331,0.68702795,342.0385,01/24.0/2026,2000,g 14.0,4.0
# From MPC 73462
P/2007 S1 (Zhao),e,5.9625,141.3208,245.2849,3.819288,0.1320476,0.33764688,159.2463,01/24.0/2026,2000,g 13.0,4.0
# From MPEC 2024-GJ3
C/2007 S2 (Lemmon),e,16.9210,296.1348,210.1505,12.49206,0.0223230,0.55745575,141.6657,01/24.0/2026,2000,g  6.5,4.0
# From MPEC 2024-GJ3
C/2008 E1 (Catalina),e,34.8637,188.8760,270.4263,10.76366,0.0279103,0.55293538,177.5251,01/24.0/2026,2000,g  7.0,4.0
# From MPC 95207
C/2008 S3 (Boattini),h,06/09.2220/2011,162.7424,55.0230,40.1970,1.001854,8.056019,2000,4.0,4.0
# From MPC 75710
P/2008 Y3 (McNaught),e,38.7804,262.8263,238.1957,8.033661,0.0432846,0.44864272,269.9449,01/24.0/2026,2000,g  8.5,4.0
# From MPC 75710
P/2009 B1 (Boattini),e,22.2597,297.1088,129.0272,6.721571,0.0565585,0.63579728,351.0919,01/24.0/2026,2000,g 13.0,4.0
# From MPC 95208
C/2009 F4 (McNaught),e,79.2041,53.5054,260.5032,23179,0.0000003,0.99976368,0.0000,12/25.4843/2011,2000,g  3.0,4.0
# From MPC103843
C/2009 P1 (Garradd),e,106.2259,325.8486,90.4525,10418,0.0000009,0.99985229,0.0000,12/24.2740/2011,2000,g  4.0,4.0
# From MPC 68902
P/2009 Q5 (McNaught),e,40.9477,160.1819,209.1996,7.427375,0.0486913,0.60908678,290.6366,01/24.0/2026,2000,g 10.0,4.0
# From MPC105235
P/2009 WX51 (Catalina),e,9.5982,31.5214,118.2938,3.082937,0.1820779,0.73975530,345.2421,01/24.0/2026,2000,g 19.0,2.0
# From MPC 74247
P/2009 Y2 (Kowalski),e,29.9725,262.0773,172.2774,6.534225,0.0590083,0.63728653,341.6004,01/24.0/2026,2000,g 13.0,4.0
# From MPC 75008
P/2010 C1 (Scotti),e,9.1158,141.5829,2.8746,7.133750,0.0517282,0.26450612,309.7866,01/24.0/2026,2000,g  9.5,4.0
# From MPC 75008
P/2010 D2 (WISE),e,57.1397,319.8799,120.0612,6.712931,0.0566677,0.45153451,329.8662,01/24.0/2026,2000,g 16.0,4.0
# From MPC 72851
P/2010 H2 (Vales),e,14.2780,64.1894,128.0767,3.835360,0.1312184,0.19798889,42.0142,01/24.0/2026,2000,g  6.0,4.0
# From MPC 70361
P/2010 H3 (SOHO),e,23.1397,77.1671,26.0893,3.034537,0.1864513,0.98558074,0.0000,05/25.2484/2026,2000,g 20.0,2.0
# From MPEC 2024-GJ3
P/2010 H4 (Scotti),e,2.3177,44.7491,179.0811,6.620191,0.0578627,0.26743541,332.0800,01/24.0/2026,2000,g 10.5,4.0
# From MPC 74637
P/2010 H5 (Scotti),e,14.0528,24.3725,175.4559,7.167737,0.0513607,0.15656765,297.4713,01/24.0/2026,2000,g 13.0,2.0
# From MPC 84315
P/2010 JC81 (WISE),e,38.7379,30.8318,12.5240,8.103174,0.0427289,0.77784267,229.7424,01/24.0/2026,2000,g  9.0,4.0
# From MPC 83518
C/2010 L3 (Catalina),e,102.6435,38.3194,121.7509,36435,0.0000001,0.99972917,0.0000,11/12.5076/2010,2000,g  4.5,4.0
# From MPC115879
C/2010 S1 (LINEAR),h,05/20.4670/2013,125.4394,93.6704,118.7162,1.000696,5.908258,2000,3.5,4.0
# From MPC 74248
P/2010 T2 (PANSTARRS),e,7.8524,57.6899,349.8305,5.567484,0.0750267,0.32439461,52.7894,01/24.0/2026,2000,g 11.5,4.0
# From MPEC 2023-J95
C/2010 U3 (Boattini),h,02/28.8738/2019,55.5277,42.9947,88.1119,1.000234,8.441056,2000,1.0,4.0
# From MPC 79021
P/2010 UH55 (Spacewatch),e,8.0379,232.7936,225.3791,6.645164,0.0575368,0.56466195,310.4935,01/24.0/2026,2000,g 11.0,4.0
# From MPC 84021
P/2011 C2 (Gibbs),e,10.8985,11.9679,160.3226,7.405892,0.0489033,0.27174016,252.3721,01/24.0/2026,2000,g  9.0,4.0
# From MPC 89309
C/2011 F1 (LINEAR),e,56.3853,85.1959,192.6016,3718,0.0000043,0.99950578,0.0000,01/01.7162/2013,2000,g  5.0,4.0
# From MPC 79866
P/2011 FR143 (Lemmon),e,15.9610,190.8419,349.6048,6.886753,0.0545359,0.45299075,299.8247,01/24.0/2026,2000,g 14.0,2.0
# From MPC106343
C/2011 J2 (LINEAR),h,12/20.4824/2013,122.7946,164.0548,85.4801,1.000308,3.459878,2000,5.5,3.6
# From MPC 82317
P/2011 JB15 (Spacewatch-Boattini),e,19.1276,153.5828,110.6065,7.382512,0.0491358,0.31523698,253.0998,01/24.0/2026,2000,g  9.0,4.0
# From MPEC 2023-J95
C/2011 KP36 (Spacewatch),e,18.9558,173.4058,180.9683,39.38079,0.0039882,0.87492124,14.0834,01/24.0/2026,2000,g  4.5,4.0
# From MPC 87913
P/2011 N1 (ASH),e,35.7826,77.6245,330.5218,6.231256,0.0633637,0.54531552,315.2569,01/24.0/2026,2000,g 11.5,4.0
# From MPEC 2022-ED3
P/2011 P1 (McNaught),e,5.6501,4.2425,349.1326,7.464121,0.0483321,0.32601077,273.3447,01/24.0/2026,2000,g  9.0,4.0
# From MPC107047
C/2011 P2 (PANSTARRS),e,8.9825,203.9284,76.2047,9.765850,0.0322953,0.36527079,182.2629,01/24.0/2026,2000,g  8.5,4.0
# From MPEC 2022-HC2
P/2011 S1 (Gibbs),e,2.6875,218.8977,193.0392,8.600892,0.0390741,0.20043253,162.9773,01/24.0/2026,2000,g  8.0,4.0
# From MPEC 2023-UR6
P/2011 V1 (Boattini),e,7.3822,46.4906,269.5908,3.858236,0.1300531,0.54838391,348.3573,01/24.0/2026,2000,g 15.5,4.0
# From MPC 82718
P/2011 W1 (PANSTARRS),e,3.7157,161.7916,283.1081,4.675769,0.0974820,0.28828113,140.8006,01/24.0/2026,2000,g 11.5,4.0
# From MPC 79342
